ORBCOMM FM115           
1 41186U 15081H   25062.28709168  .00001805  00000+0  38972-3 0  9996
2 41186  46.9972 183.1122 0001680 263.3807  96.6889 14.62159969492273
ORBCOMM FM108           
1 41187U 15081J   25062.50400768  .00001583  00000+0  37884-3 0  9990
2 41187  47.0030 245.9721 0003091 190.8771 169.2048 14.57856668491373
ORBCOMM FM116           
1 41189U 15081L   25062.04987968  .00002131  00000+0  49741-3 0  9998
2 41189  47.0027 336.7745 0001971 283.7529  76.3137 14.57847897490161
